[{"OBJECT_NAME":"ONEWEB-0355","OBJECT_ID":"2021-083AJ","EPOCH":"2026-03-09T17:14:28.095936","MEAN_MOTION":13.13469681,"ECCENTRICITY":0.00019778,"INCLINATION":87.9022,"RA_OF_ASC_NODE":340.0327,"ARG_OF_PERICENTER":78.2456,"MEAN_ANOMALY":281.8895,"EPHEMERIS_TYPE":0,"CLASSIFICATION_TYPE":"U","NORAD_CAT_ID":49218,"ELEMENT_SET_NO":999,"REV_AT_EPOCH":21784,"BSTAR":2.496648e-5,"MEAN_MOTION_DOT":2.2e-7,"MEAN_MOTION_DDOT":0},{"OBJECT_NAME":"SL-14 DEB","OBJECT_ID":"1991-056BC","EPOCH":"2026-03-09T11:28:36.518880","MEAN_MOTION":13.09496692,"ECCENTRICITY":0.00515308,"INCLINATION":82.5364,"RA_OF_ASC_NODE":228.1272,"ARG_OF_PERICENTER":173.0934,"MEAN_ANOMALY":187.0906,"EPHEMERIS_TYPE":0,"CLASSIFICATION_TYPE":"U","NORAD_CAT_ID":45314,"ELEMENT_SET_NO":999,"REV_AT_EPOCH":28823,"BSTAR":-0.0008098159,"MEAN_MOTION_DOT":-2.69e-6,"MEAN_MOTION_DDOT":0}]
